[
  {
    "OBJECT_NAME": "STARLINK-1329",
    "OBJECT_ID": "20025A",
    "EPOCH": "2025-11-11T04:40:16.616064",
    "MEAN_MOTION": 15.06391042,
    "ECCENTRICITY": 0.0001249,
    "INCLINATION": 53.0549,
    "RA_OF_ASC_NODE": 278.5641,
    "ARG_OF_PERICENTER": 91.2996,
    "MEAN_ANOMALY": 268.8136,
    "EPHEMERIS_TYPE": 0,
    "CLASSIFICATION_TYPE": "U",
    "NORAD_CAT_ID": 45531,
    "ELEMENT_SET_NO": 999,
    "REV_AT_EPOCH": 30723,
    "BSTAR": 0.00010987,
    "MEAN_MOTION_DOT": 1.355e-05,
    "MEAN_MOTION_DDOT": 0.0,
    "TLE_LINE1": "1 45531U 20025A   25315.19463676  .00001355  00000+0  10987-3 0  9996",
    "TLE_LINE2": "2 45531  53.0549 278.5641 0001249  91.2996 268.8136 15.06391042307231",
    "COMMENT": "Grouped by shell and plane from TLE"
  },
  {
    "OBJECT_NAME": "STARLINK-1338",
    "OBJECT_ID": "20025B",
    "EPOCH": "2025-11-11T06:31:43.855104",
    "MEAN_MOTION": 15.06392771,
    "ECCENTRICITY": 0.0001324,
    "INCLINATION": 53.055,
    "RA_OF_ASC_NODE": 278.214,
    "ARG_OF_PERICENTER": 83.8992,
    "MEAN_ANOMALY": 276.2148,
    "EPHEMERIS_TYPE": 0,
    "CLASSIFICATION_TYPE": "U",
    "NORAD_CAT_ID": 45532,
    "ELEMENT_SET_NO": 999,
    "REV_AT_EPOCH": 30724,
    "BSTAR": 4.4664e-05,
    "MEAN_MOTION_DOT": 3.84e-06,
    "MEAN_MOTION_DDOT": 0.0,
    "TLE_LINE1": "1 45532U 20025B   25315.27203536  .00000384  00000+0  44664-4 0  9994",
    "TLE_LINE2": "2 45532  53.0550 278.2140 0001324  83.8992 276.2148 15.06392771307249",
    "COMMENT": "Grouped by shell and plane from TLE"
  },
  {
    "OBJECT_NAME": "STARLINK-1362",
    "OBJECT_ID": "20025H",
    "EPOCH": "2025-11-11T04:07:00.962688",
    "MEAN_MOTION": 15.06395452,
    "ECCENTRICITY": 0.0001429,
    "INCLINATION": 53.0551,
    "RA_OF_ASC_NODE": 278.3835,
    "ARG_OF_PERICENTER": 99.4262,
    "MEAN_ANOMALY": 260.6889,
    "EPHEMERIS_TYPE": 0,
    "CLASSIFICATION_TYPE": "U",
    "NORAD_CAT_ID": 45538,
    "ELEMENT_SET_NO": 999,
    "REV_AT_EPOCH": 30723,
    "BSTAR": 0.00010578000000000001,
    "MEAN_MOTION_DOT": 1.294e-05,
    "MEAN_MOTION_DDOT": 0.0,
    "TLE_LINE1": "1 45538U 20025H   25315.17153892  .00001294  00000+0  10578-3 0  9995",
    "TLE_LINE2": "2 45538  53.0551 278.3835 0001429  99.4262 260.6889 15.06395452307234",
    "COMMENT": "Grouped by shell and plane from TLE"
  },
  {
    "OBJECT_NAME": "STARLINK-1368",
    "OBJECT_ID": "20025K",
    "EPOCH": "2025-11-11T04:13:43.603104",
    "MEAN_MOTION": 15.06399293,
    "ECCENTRICITY": 0.0001417,
    "INCLINATION": 53.055,
    "RA_OF_ASC_NODE": 278.6446,
    "ARG_OF_PERICENTER": 97.5208,
    "MEAN_ANOMALY": 262.5942,
    "EPHEMERIS_TYPE": 0,
    "CLASSIFICATION_TYPE": "U",
    "NORAD_CAT_ID": 45540,
    "ELEMENT_SET_NO": 999,
    "REV_AT_EPOCH": 30722,
    "BSTAR": 0.00010465000000000001,
    "MEAN_MOTION_DOT": 1.278e-05,
    "MEAN_MOTION_DDOT": 0.0,
    "TLE_LINE1": "1 45540U 20025K   25315.17619911  .00001278  00000+0  10465-3 0  9994",
    "TLE_LINE2": "2 45540  53.0550 278.6446 0001417  97.5208 262.5942 15.06399293307220",
    "COMMENT": "Grouped by shell and plane from TLE"
  },
  {
    "OBJECT_NAME": "STARLINK-1371",
    "OBJECT_ID": "20025M",
    "EPOCH": "2025-11-11T06:42:20.688768",
    "MEAN_MOTION": 15.06394742,
    "ECCENTRICITY": 0.000141,
    "INCLINATION": 53.0543,
    "RA_OF_ASC_NODE": 278.1807,
    "ARG_OF_PERICENTER": 92.5253,
    "MEAN_ANOMALY": 267.5898,
    "EPHEMERIS_TYPE": 0,
    "CLASSIFICATION_TYPE": "U",
    "NORAD_CAT_ID": 45542,
    "ELEMENT_SET_NO": 999,
    "REV_AT_EPOCH": 30724,
    "BSTAR": 9.1334e-05,
    "MEAN_MOTION_DOT": 1.079e-05,
    "MEAN_MOTION_DDOT": 0.0,
    "TLE_LINE1": "1 45542U 20025M   25315.27940612  .00001079  00000+0  91334-4 0  9996",
    "TLE_LINE2": "2 45542  53.0543 278.1807 0001410  92.5253 267.5898 15.06394742307249",
    "COMMENT": "Grouped by shell and plane from TLE"
  },
  {
    "OBJECT_NAME": "STARLINK-1372",
    "OBJECT_ID": "20025N",
    "EPOCH": "2025-11-11T04:24:21.877056",
    "MEAN_MOTION": 15.06409959,
    "ECCENTRICITY": 0.0001318,
    "INCLINATION": 53.0543,
    "RA_OF_ASC_NODE": 278.6125,
    "ARG_OF_PERICENTER": 85.0175,
    "MEAN_ANOMALY": 275.0964,
    "EPHEMERIS_TYPE": 0,
    "CLASSIFICATION_TYPE": "U",
    "NORAD_CAT_ID": 45543,
    "ELEMENT_SET_NO": 999,
    "REV_AT_EPOCH": 30632,
    "BSTAR": 0.00072852,
    "MEAN_MOTION_DOT": 0.00010589,
    "MEAN_MOTION_DDOT": 0.0,
    "TLE_LINE1": "1 45543U 20025N   25315.18358654  .00010589  00000+0  72852-3 0  9995",
    "TLE_LINE2": "2 45543  53.0543 278.6125 0001318  85.0175 275.0964 15.06409959306328",
    "COMMENT": "Grouped by shell and plane from TLE"
  },
  {
    "OBJECT_NAME": "STARLINK-1373",
    "OBJECT_ID": "20025P",
    "EPOCH": "2025-11-11T06:26:25.059840",
    "MEAN_MOTION": 15.06399104,
    "ECCENTRICITY": 0.0001385,
    "INCLINATION": 53.0553,
    "RA_OF_ASC_NODE": 278.2324,
    "ARG_OF_PERICENTER": 103.0894,
    "MEAN_ANOMALY": 257.025,
    "EPHEMERIS_TYPE": 0,
    "CLASSIFICATION_TYPE": "U",
    "NORAD_CAT_ID": 45544,
    "ELEMENT_SET_NO": 999,
    "REV_AT_EPOCH": 30724,
    "BSTAR": 0.00020313999999999998,
    "MEAN_MOTION_DOT": 2.746e-05,
    "MEAN_MOTION_DDOT": 0.0,
    "TLE_LINE1": "1 45544U 20025P   25315.26834560  .00002746  00000+0  20314-3 0  9992",
    "TLE_LINE2": "2 45544  53.0553 278.2324 0001385 103.0894 257.0250 15.06399104307240",
    "COMMENT": "Grouped by shell and plane from TLE"
  },
  {
    "OBJECT_NAME": "STARLINK-1365",
    "OBJECT_ID": "20025BM",
    "EPOCH": "2025-11-11T06:37:03.174816",
    "MEAN_MOTION": 15.06366382,
    "ECCENTRICITY": 0.0001522,
    "INCLINATION": 53.0556,
    "RA_OF_ASC_NODE": 278.1986,
    "ARG_OF_PERICENTER": 90.2482,
    "MEAN_ANOMALY": 269.8681,
    "EPHEMERIS_TYPE": 0,
    "CLASSIFICATION_TYPE": "U",
    "NORAD_CAT_ID": 45590,
    "ELEMENT_SET_NO": 999,
    "REV_AT_EPOCH": 30725,
    "BSTAR": 0.00040558,
    "MEAN_MOTION_DOT": 5.759e-05,
    "MEAN_MOTION_DDOT": 0.0,
    "TLE_LINE1": "1 45590U 20025BM  25315.27573119  .00005759  00000+0  40558-3 0  9993",
    "TLE_LINE2": "2 45590  53.0556 278.1986 0001522  90.2482 269.8681 15.06366382307252",
    "COMMENT": "Grouped by shell and plane from TLE"
  },
  {
    "OBJECT_NAME": "STARLINK-2440",
    "OBJECT_ID": "21027P",
    "EPOCH": "2025-11-11T04:17:03.226848",
    "MEAN_MOTION": 15.06396338,
    "ECCENTRICITY": 0.0001636,
    "INCLINATION": 53.0549,
    "RA_OF_ASC_NODE": 273.6306,
    "ARG_OF_PERICENTER": 89.6773,
    "MEAN_ANOMALY": 270.4404,
    "EPHEMERIS_TYPE": 0,
    "CLASSIFICATION_TYPE": "U",
    "NORAD_CAT_ID": 48105,
    "ELEMENT_SET_NO": 999,
    "REV_AT_EPOCH": 25553,
    "BSTAR": 0.0007638899999999999,
    "MEAN_MOTION_DOT": 0.00011114,
    "MEAN_MOTION_DDOT": 0.0,
    "TLE_LINE1": "1 48105U 21027P   25315.17850957  .00011114  00000+0  76389-3 0  9991",
    "TLE_LINE2": "2 48105  53.0549 273.6306 0001636  89.6773 270.4404 15.06396338255534",
    "COMMENT": "Grouped by shell and plane from TLE"
  },
  {
    "OBJECT_NAME": "STARLINK-2469",
    "OBJECT_ID": "21027AN",
    "EPOCH": "2025-11-11T03:50:31.537536",
    "MEAN_MOTION": 15.06399215,
    "ECCENTRICITY": 0.0001895,
    "INCLINATION": 53.0562,
    "RA_OF_ASC_NODE": 273.8014,
    "ARG_OF_PERICENTER": 100.2732,
    "MEAN_ANOMALY": 259.8471,
    "EPHEMERIS_TYPE": 0,
    "CLASSIFICATION_TYPE": "U",
    "NORAD_CAT_ID": 48128,
    "ELEMENT_SET_NO": 999,
    "REV_AT_EPOCH": 25552,
    "BSTAR": 0.0,
    "MEAN_MOTION_DOT": -1.576e-05,
    "MEAN_MOTION_DDOT": 0.0,
    "TLE_LINE1": "1 48128U 21027AN  25315.16008724 -.00001576  00000+0 -86887-4 0  9990",
    "TLE_LINE2": "2 48128  53.0562 273.8014 0001895 100.2732 259.8471 15.06399215255525",
    "COMMENT": "Grouped by shell and plane from TLE"
  },
  {
    "OBJECT_NAME": "STARLINK-2486",
    "OBJECT_ID": "21027BD",
    "EPOCH": "2025-11-11T04:45:36.092160",
    "MEAN_MOTION": 15.06397995,
    "ECCENTRICITY": 0.0001321,
    "INCLINATION": 53.0544,
    "RA_OF_ASC_NODE": 278.6394,
    "ARG_OF_PERICENTER": 97.0443,
    "MEAN_ANOMALY": 263.0696,
    "EPHEMERIS_TYPE": 0,
    "CLASSIFICATION_TYPE": "U",
    "NORAD_CAT_ID": 48143,
    "ELEMENT_SET_NO": 999,
    "REV_AT_EPOCH": 25546,
    "BSTAR": 0.00030141,
    "MEAN_MOTION_DOT": 4.211e-05,
    "MEAN_MOTION_DDOT": 0.0,
    "TLE_LINE1": "1 48143U 21027BD  25315.19833440  .00004211  00000+0  30141-3 0  9999",
    "TLE_LINE2": "2 48143  53.0544 278.6394 0001321  97.0443 263.0696 15.06397995255464",
    "COMMENT": "Grouped by shell and plane from TLE"
  },
  {
    "OBJECT_NAME": "STARLINK-2509",
    "OBJECT_ID": "21036AU",
    "EPOCH": "2025-11-11T07:06:53.781984",
    "MEAN_MOTION": 15.06401343,
    "ECCENTRICITY": 0.0001644,
    "INCLINATION": 53.0552,
    "RA_OF_ASC_NODE": 273.1043,
    "ARG_OF_PERICENTER": 90.4879,
    "MEAN_ANOMALY": 269.6299,
    "EPHEMERIS_TYPE": 0,
    "CLASSIFICATION_TYPE": "U",
    "NORAD_CAT_ID": 48318,
    "ELEMENT_SET_NO": 999,
    "REV_AT_EPOCH": 25018,
    "BSTAR": 0.00017219000000000002,
    "MEAN_MOTION_DOT": 2.284e-05,
    "MEAN_MOTION_DDOT": 0.0,
    "TLE_LINE1": "1 48318U 21036AU  25315.29645581  .00002284  00000+0  17219-3 0  9990",
    "TLE_LINE2": "2 48318  53.0552 273.1043 0001644  90.4879 269.6299 15.06401343250184",
    "COMMENT": "Grouped by shell and plane from TLE"
  },
  {
    "OBJECT_NAME": "STARLINK-2512",
    "OBJECT_ID": "21036AV",
    "EPOCH": "2025-11-11T03:49:09.557760",
    "MEAN_MOTION": 15.06388882,
    "ECCENTRICITY": 0.0001693,
    "INCLINATION": 53.055,
    "RA_OF_ASC_NODE": 273.7106,
    "ARG_OF_PERICENTER": 86.9111,
    "MEAN_ANOMALY": 273.2071,
    "EPHEMERIS_TYPE": 0,
    "CLASSIFICATION_TYPE": "U",
    "NORAD_CAT_ID": 48319,
    "ELEMENT_SET_NO": 999,
    "REV_AT_EPOCH": 25016,
    "BSTAR": 2.9441e-05,
    "MEAN_MOTION_DOT": 1.57e-06,
    "MEAN_MOTION_DDOT": 0.0,
    "TLE_LINE1": "1 48319U 21036AV  25315.15913840  .00000157  00000+0  29441-4 0  9990",
    "TLE_LINE2": "2 48319  53.0550 273.7106 0001693  86.9111 273.2071 15.06388882250161",
    "COMMENT": "Grouped by shell and plane from TLE"
  }
]